C/2019 F2 (ATLAS),e,19.2921,175.4150,11.6423,16.59937,0.0145736,0.86469971,22.0861,11/01.0/2023,2000,g 12.0,4.0
# From MPEC 2021-P47
A/2019 G2,e,159.2173,208.1658,82.6175,417.6547,0.0001155,0.99450349,0.0000,12/08.0156/2019,2000,g 16.5,2.0
# From MPEC 2022-VC5
A/2019 G3,e,156.8041,49.9116,161.8783,17.18731,0.0138322,0.83451555,24.7928,11/01.0/2023,2000,g 17.1,2.0
# From MPC114607
P/2019 GG21 (PANSTARRS),e,6.0865,340.5612,208.5803,7.467859,0.0482959,0.47178470,79.0203,11/01.0/2023,2000,g 12.0,4.0
# From MPEC 2022-M21
C/2019 H1 (NEOWISE),e,104.4169,269.2879,19.3203,243.5689,0.0002593,0.99243039,0.0000,04/27.8847/2019,2000,g 15.5,4.0
# From MPEC 2023-A50
C/2019 J1 (Lemmon),e,24.5348,98.1855,167.7090,67.88854,0.0017620,0.96338452,2.9404,11/01.0/2023,2000,g 12.0,4.0
# From MPEC 2021-R75
C/2019 J2 (Palomar),e,5.2606,25.5385,98.6806,160.8892,0.0004830,0.98929759,0.0000,07/20.2938/2019,2000,g 13.0,4.0
# From MPC117071
C/2019 J3 (ATLAS),h,08/02.4937/2019,131.3306,270.6249,16.5885,1.000531,2.368659,2000,13.5,4.0
# From MPEC 2022-M21
C/2019 JU6 (ATLAS),h,06/02.2548/2019,148.3313,21.7655,94.9663,1.000088,2.041630,2000,14.5,4.0
# From MPEC 2022-O08
C/2019 K1 (ATLAS),e,87.0331,73.3229,265.7334,6849,0.0000017,0.99970576,0.0000,02/12.4214/2020,2000,g 10.0,4.0
# From MPC119997
C/2019 K4 (Ye),e,105.2970,180.1683,139.9251,1443,0.0000180,0.99842650,0.0000,06/15.4291/2019,2000,g 12.5,4.0
# From MPEC 2021-P47
C/2019 K5 (Young),e,15.3151,177.1834,175.1329,169.4825,0.0004467,0.98793159,0.0000,06/22.8142/2019,2000,g 13.0,4.0
# From MPEC 2021-P47
C/2019 K6 (PANSTARRS),e,132.3795,43.0025,187.5518,1351,0.0000198,0.99709754,0.0000,05/19.7836/2020,2000,g 11.5,4.0
# From MPEC 2023-R20
C/2019 K7 (Smith),h,06/17.6686/2020,103.5210,307.9837,27.4103,1.001008,4.478358,2000,6.0,4.0
# From MPEC 2021-R75
C/2019 K8 (ATLAS),e,93.1186,291.0267,85.3618,2314,0.0000089,0.99861936,0.0000,07/21.5100/2019,2000,g 11.5,4.0
# From MPEC 2023-A50
C/2019 L1 (PANSTARRS),e,9.9765,254.4292,50.0621,9.837402,0.0319436,0.70504804,49.3196,11/01.0/2023,2000,g 13.5,4.0
# From MPC115886
C/2019 L2 (NEOWISE),e,152.2067,12.5511,18.8591,25.07947,0.0078474,0.93515545,13.1344,11/01.0/2023,2000,g 16.0,4.0
# From MPEC 2023-HD1
P/2019 LD2 (ATLAS),e,11.6127,179.5278,119.0328,5.208656,0.0829116,0.12670590,111.4519,11/01.0/2023,2000,g 12.0,4.0
# From MPEC 2023-R20
C/2019 L3 (ATLAS),h,01/09.7404/2022,48.3460,290.7623,171.6389,1.002326,3.554595,2000,4.5,4.0
# From MPEC 2020-K19
P/2019 LM4 (Palomar),e,36.4151,72.8370,68.2853,5.705572,0.0723195,0.58510225,115.4972,11/01.0/2023,2000,g  9.5,4.0
# From MPC118095
C/2019 LB7 (Kleyna),e,164.2905,3.8996,336.6248,34.77250,0.0048067,0.92827842,8.0785,11/01.0/2023,2000,g 17.0,4.0
# From MPEC 2022-O08
P/2019 M2 (ATLAS),e,12.2696,307.5904,332.5608,3.029364,0.1869291,0.64730099,297.9068,11/01.0/2023,2000,g 21.2,4.0
# From MPC118095
C/2019 M3 (ATLAS),e,99.5411,154.9515,87.9088,5273,0.0000026,0.99954040,0.0000,12/31.5820/2018,2000,g 12.2,4.0
# From MPEC 2023-JA2
C/2019 M4 (TESS),h,09/12.0740/2019,65.6788,52.6490,260.3741,1.003132,9.189232,2000,5.0,4.0
# From MPEC 2023-C45
C/2019 N1 (ATLAS),e,82.4366,13.5683,193.3953,1319,0.0000206,0.99870781,0.0000,12/01.0820/2020,2000,g  7.5,4.0
# From MPEC 2023-CD8
A/2019 N2,e,89.3657,276.1577,347.1798,1536,0.0000164,0.99873217,0.0000,08/22.7051/2019,2000,g 12.5,2.0
# From MPEC 2022-A21
C/2019 NJ3 (Lemmon),h,10/22.7683/2020,99.4049,142.4782,246.8965,1.001965,4.363595,2000,9.0,4.0
# From MPEC 2023-SQ0
A/2019 O2,e,93.3122,48.2578,129.6225,58.15411,0.0022225,0.83349992,0.4626,11/01.0/2023,2000,g  9.5,2.0
# From MPEC 2023-SQ0
C/2019 O3 (Palomar),h,03/09.6759/2021,89.8151,300.4366,60.1341,1.004409,8.821359,2000,3.5,4.0
# From MPEC 2021-P47
A/2019 O4,e,15.0933,354.9274,61.9141,33.29217,0.0051309,0.89035982,6.9739,11/01.0/2023,2000,g 15.5,2.0
# From MPEC 2023-A50
C/2019 Q1 (Lemmon),h,07/21.0687/2020,155.7316,42.4561,56.2233,1.001255,5.004443,2000,8.5,4.0
# From MPC117072
A/2019 Q2,e,159.0233,188.0236,176.4285,58.17039,0.0022215,0.97827467,0.0000,07/22.2925/2019,2000,g 18.0,2.0
# From MPC117072
P/2019 S2 (PANSTARRS),e,10.4655,93.1884,217.1088,4.744164,0.0953816,0.20532344,163.4827,11/01.0/2023,2000,g 13.5,4.0
# From MPEC 2022-CN4
P/2019 S3 (PANSTARRS),e,8.6946,150.1737,213.0500,3.415236,0.1561612,0.47111349,238.3680,11/01.0/2023,2000,g 18.3,4.0
# From MPEC 2021-S45
C/2019 S4 (Lemmon),e,92.0988,63.1576,71.3702,237.0831,0.0002700,0.98548075,0.0000,04/08.2393/2020,2000,g 11.0,4.0
# From MPEC 2023-N01
A/2019 T1,e,120.8706,6.9448,91.0637,38.82340,0.0040744,0.88974640,4.1561,11/01.0/2023,2000,g 13.0,2.0
# From MPEC 2023-R20
C/2019 T2 (Lemmon),e,111.4571,155.6535,239.4307,5012,0.0000028,0.99947208,0.0000,04/22.6245/2021,2000,g  9.0,4.0
# From MPEC 2023-UR6
C/2019 T3 (ATLAS),e,121.8386,139.5324,112.4561,3429,0.0000049,0.99826417,0.0000,03/04.3009/2021,2000,g  6.8,4.0
# From MPEC 2023-UR6
C/2019 T4 (ATLAS),e,53.6315,199.9383,351.1481,916.1532,0.0000355,0.99537067,0.0000,06/08.8153/2022,2000,g  5.0,4.0
# From MPEC 2021-P47
P/2019 T5 (ATLAS),e,33.4875,247.6162,189.5734,7.999178,0.0435648,0.80972515,67.6003,11/01.0/2023,2000,g 15.0,4.0
# From MPEC 2021-P47
P/2019 T6 (PANSTARRS),e,18.6973,71.2542,328.9857,5.438861,0.0777038,0.62309449,112.9132,11/01.0/2023,2000,g 15.5,4.0
# From MPC118096
P/2019 U4 (PANSTARRS),e,11.6992,200.0211,181.0295,3.519898,0.1492482,0.47603380,224.3117,11/01.0/2023,2000,g 19.0,4.0
# From MPEC 2023-R20
C/2019 U5 (PANSTARRS),h,03/29.7670/2023,113.5175,2.6359,181.4806,1.001216,3.624039,2000,4.5,4.0
# From MPEC 2022-H04
C/2019 U6 (Lemmon),e,60.9682,235.7840,329.5333,327.6726,0.0001662,0.99721588,0.0000,06/18.3218/2020,2000,g 10.0,4.0
# From MPEC 2022-N37
C/2019 V1 (Borisov),e,61.9224,83.1544,51.1679,1658,0.0000146,0.99813421,0.0000,07/16.6079/2020,2000,g 11.0,4.0
# From MPEC 2022-L66
P/2019 V2 (Groeller),e,11.8080,189.1821,335.6867,7.497021,0.0480143,0.33118636,53.3000,11/01.0/2023,2000,g 10.0,4.0
# From MPEC 2023-A50
P/2019 W1 (PANSTARRS),e,23.4760,35.3768,18.7587,4.548861,0.1015898,0.26726045,166.2155,11/01.0/2023,2000,g 12.9,4.0
# From MPEC 2021-P47
P/2019 X1 (Pruyne),e,10.2506,43.6792,36.8155,6.174886,0.0642334,0.30385547,100.3523,11/01.0/2023,2000,g 10.4,4.0
# From MPEC 2020-C98
P/2019 X2 (Pan-STARRS),e,15.8948,250.8384,213.4472,3.636396,0.1421338,0.49992158,202.1506,11/01.0/2023,2000,g 18.0,4.0
# From MPC119999
C/2019 Y1 (ATLAS),e,73.3851,31.5448,57.9155,86.90094,0.0012167,0.99046566,0.0000,03/16.2334/2020,2000,g 13.7,4.0
# From MPEC 2020-C98
P/2019 Y3 (Catalina),e,24.6042,139.3081,2.5853,3.013892,0.1883703,0.69114114,268.0335,11/01.0/2023,2000,g 18.5,4.0
# From MPEC 2022-YN2
C/2019 Y4 (ATLAS),e,45.1538,120.6916,177.4502,351.4439,0.0001496,0.99927215,0.0000,05/30.7367/2020,2000,g 11.8,6.0
# From MPEC 2020-L06
C/2019 Y4-A (ATLAS),h,05/30.7667/2020,45.5951,121.0542,177.2838,1.001418,0.253954,2000,11.6,6.0
# From MPEC 2023-J29
C/2019 Y4-B (ATLAS),h,05/30.7427/2020,45.2842,120.7981,177.3943,1.000016,0.255268,2000,12.1,6.0
# From MPEC 2020-L06
C/2019 Y4-C (ATLAS),h,05/30.7199/2020,45.3777,120.7810,177.3171,1.002143,0.255026,2000,12.7,6.0
# From MPEC 2020-L06
C/2019 Y4-D (ATLAS),e,45.4240,121.1526,177.4556,68.34707,0.0017443,0.99627866,0.0000,05/30.8442/2020,2000,g 12.5,6.0
# From MPEC 2023-A50
C/2019 Y5 (PANSTARRS),e,82.7621,51.7511,303.5835,735.7968,0.0000494,0.99330983,0.0000,08/17.7152/2019,2000,g 11.0,4.0
# From MPEC 2023-A50
A/2020 A1,e,149.0352,119.1736,302.4679,25.58719,0.0076150,0.93487211,10.8897,11/01.0/2023,2000,g 18.0,2.0
# From MPEC 2022-YN2
C/2020 A2 (NEOWISE),e,120.5965,286.2716,68.0619,1297,0.0000211,0.99924929,0.0000,01/08.4160/2020,2000,g 13.5,4.0
# From MPEC 2023-A50
C/2020 A3 (ATLAS),h,06/28.8429/2019,146.6572,120.8050,268.3391,1.000559,5.757814,2000,8.0,4.0
# From MPEC 2022-P91
P/2020 A4 (PANSTARRS-Lemmon),e,24.9910,312.3672,144.7706,8.194792,0.0420143,0.65419612,60.4464,11/01.0/2023,2000,g 15.0,4.0
# From MPEC 2020-N08
A/2020 B1,e,18.5201,309.9381,154.7229,51.50896,0.0026661,0.96623056,3.7469,11/01.0/2023,2000,g 21.0,2.0
# From MPEC 2020-HN5
C/2020 B2 (Lemmon),e,55.7532,354.2895,143.5997,67.66832,0.0017706,0.95921233,2.4335,11/01.0/2023,2000,g 10.0,4.0
# From MPEC 2022-N37
C/2020 B3 (Rankin),e,20.7091,185.8386,324.8877,934.3222,0.0000345,0.99643185,0.0000,10/19.5809/2019,2000,g 13.0,4.0
# From MPEC 2023-KD6
P/2020 B4 (Sheppard),e,11.6086,185.9777,342.0128,7.966822,0.0438305,0.19194915,31.2308,11/01.0/2023,2000,g 10.5,4.0
# From MPEC 2023-R20
C/2020 F2 (ATLAS),h,07/14.4025/2022,163.5892,250.2977,48.3104,1.005133,8.815945,2000,4.5,4.0
# From MPEC 2021-O56
C/2020 F3 (NEOWISE),e,29.1006,61.0820,37.3079,361.3374,0.0001435,0.99918646,0.0000,07/04.0059/2020,2000,g  7.5,5.2
# From MPEC 2023-UR6
C/2020 F5 (MASTER),e,52.2055,350.4998,310.6822,173.2000,0.0004324,0.97502471,0.0000,03/17.2733/2021,2000,g  6.5,3.2
# From MPEC 2020-L06
C/2020 F6 (PANSTARRS),e,174.5830,207.9033,344.5067,389.5822,0.0001282,0.99100813,0.0000,04/11.6054/2020,2000,g 14.5,2.8
# From MPEC 2023-J95
C/2020 F7 (Lemmon),e,93.9539,321.8609,227.9469,562.6772,0.0000738,0.99052339,0.0000,11/13.6429/2021,2000,g  7.0,4.0
# From MPEC 2023-J29
C/2020 F8 (SWAN),h,05/27.0945/2020,110.6018,259.8552,68.0761,1.000169,0.429685,2000,10.0,4.0
# From MPEC 2020-L06
P/2020 G1 (Pimentel),e,18.5094,240.1066,207.6161,3.607997,0.1438152,0.86055404,190.2828,11/01.0/2023,2000,g 17.0,4.0
# From MPEC 2022-YB4
C/2020 H2 (Pruyne),e,124.8704,277.6687,26.6474,187.6096,0.0003835,0.99557372,0.0000,04/27.8048/2020,2000,g 14.0,3.2
# From MPEC 2020-HM1
C/2020 H3 (Wierzchos),p,06/05.7162/2020,62.5292,30.4456,2.300288,270.6227,2000,13.5,4.0
# From MPEC 2020-L06
C/2020 H4 (Leonard),e,84.4998,307.6303,117.5117,47.82521,0.0029800,0.98066966,0.0000,08/29.6300/2020,2000,g 15.0,3.2
# From MPEC 2023-N01
C/2020 H5 (Robinson),e,70.2567,210.6277,326.3156,4157,0.0000037,0.99775311,0.0000,12/10.4346/2020,2000,g  5.0,4.0
# From MPEC 2023-SQ0
C/2020 H6 (ATLAS),e,79.9778,213.7212,20.2787,4770,0.0000030,0.99901444,0.0000,09/30.4559/2021,2000,g  8.0,3.2
# From MPEC 2020-KB7
